CZ-4C R/B               
1 52085U 22027B   26171.38461360 -.00000092  00000+0  34473-5 0  9998
2 52085  63.3945  50.4118 0232830  22.6282 338.4820 13.65480208212472
OMNI-L1                 
1 52157U 22033A   26171.21561682  .00001427  00000+0  18310-3 0  9997
2 52157  97.8396 250.3340 0003810 274.5317  85.5462 14.82758106227904
ARCSAT-1                
1 52161U 22033E   26171.47471499  .00011865  00000+0  18703-3 0  9999
2 52161  97.2747 263.7965 0005354 167.4724 192.6663 15.53690178236211
GLOBAL-18               
1 52196U 22034B   26171.35717741  .00016854  00000+0  34329-3 0  9993
2 52196  52.9807 241.4882 0003224 296.5076  63.5599 15.46390120237450
JILIN-1 GAOFEN 3D27     
1 52444U 22048B   26171.39403240  .00111153  00000+0  71051-3 0  9995
2 52444  97.5710 285.6215 0001090 340.1368  19.9855 15.76014932229989
JILIN-1 GAOFEN 3D28     
1 52445U 22048C   26171.32364536  .00133413  00000+0  73905-3 0  9996
2 52445  97.5650 285.7071 0000899 234.7776 125.3407 15.79189311230020
VIGORIDE-3              
1 52760U 22057AE  26171.42702770  .00004548  00000+0  17276-3 0  9998
2 52760  97.6612 311.4869 0009702 110.5914 249.6366 15.27308098225653
ION SCV-006             
1 52761U 22057AF  26171.46750413  .00011140  00000+0  23393-3 0  9993
2 52761  97.6109 320.2466 0018330 102.6438 257.6861 15.45357696226621
SHERPA-AC1              
1 52763U 22057AH  26171.38875638  .00006339  00000+0  18138-3 0  9998
2 52763  97.6695 320.7483 0008892  83.9614 276.2642 15.36302137226192
OMNI-L2                 
1 52771U 22057AR  26171.43231169  .00000980  00000+0  13144-3 0  9996
2 52771  97.4714 233.5727 0005521 324.4275  35.6570 14.81377450220870
SNUGLITE-II             
1 52899U 22065F   26171.37922855  .00000681  00000+0  13817-3 0  9993
2 52899  98.2207 316.2040 0007803  23.7444 336.4117 14.64352373211468
MIMAN                   
1 52900U 22065G   26171.33376383  .00000375  00000+0  84546-4 0  9999
2 52900  98.2265 313.8001 0008018  25.7705 334.3894 14.61846294210900
STARLINK-4362           
1 53043U 22077A   26171.45562198 -.00000833  00000+0 -53732-4 0  9999
2 53043  97.3364 350.2444 0001492  85.7977 274.3421 15.05666928216370
LARES-2                 
1 53105U 22080A   26167.54304696 -.00000016  00000+0  00000+0 0  9991
2 53105  70.1619 305.5499 0005380 334.9817  25.0421  6.38965086 91629
GREENCUBE (IO-117)      
1 53109U 22080E   26171.29702633 -.00000003  00000+0  00000+0 0  9991
2 53109  70.1444 297.1634 0008923 288.8810  71.0882  6.42583222 92268
STARLINK-4410           
1 53204U 22084R   26171.41668980  .00056010  00000+0  17634-2 0  9993
2 53204  97.6003 232.5848 0001493  52.9333 319.2659 15.32731418  5752
COSMOS 2558             
1 53323U 22089A   26171.38576041  .00098710  00000+0  63943-3 0  9990
2 53323  97.2251 275.5817 0001456 235.4551 124.6578 15.75746772218331
STARLINK-4400           
1 53468U 22099D   26171.30195828  .00002360  00000+0  16754-3 0  9997
2 53468  97.3361 290.1780 0001446 133.5603 226.5744 15.05638539211414
STARLINK-4621           
1 53676U 22105AE  26171.17180185 -.00001253  00000+0 -82899-4 0  9997
2 53676  97.3397  50.0674 0002117  81.3509 278.7958 15.05658070208650
SHERPA-LTC2             
1 53754U 22107BG  26171.38238758  .00003612  00000+0  19260-3 0  9999
2 53754  53.2348 206.8038 0393554 235.0113 121.3325 14.69739518203018
CENTISPACE-1 S3         
1 53757U 22108A   26171.42244306  .00000314  00000+0  10133-3 0  9990
2 53757  53.5340  41.8810 0009566   3.9650 356.1399 14.61256163202005
