OBJECT_NAME,OBJECT_ID,EPOCH,MEAN_MOTION,ECCENTRICITY,INCLINATION,RA_OF_ASC_NODE,ARG_OF_PERICENTER,MEAN_ANOMALY,EPHEMERIS_TYPE,CLASSIFICATION_TYPE,NORAD_CAT_ID,ELEMENT_SET_NO,REV_AT_EPOCH,BSTAR,MEAN_MOTION_DOT,MEAN_MOTION_DDOT
CZ-4C R/B,2022-027B,2026-06-20T09:13:50.615040,13.65480208,.023283,63.3945,50.4118,22.6282,338.4820,0,U,52085,999,21247,.34473E-5,-.92E-6,0
OMNI-L1,2022-033A,2026-06-20T05:10:29.293248,14.82758106,.000381,97.8396,250.3340,274.5317,85.5462,0,U,52157,999,22790,.1831E-3,.1427E-4,0
ARCSAT-1,2022-033E,2026-06-20T11:23:35.375136,15.53690178,.0005354,97.2747,263.7965,167.4724,192.6663,0,U,52161,999,23621,.18703E-3,.11865E-3,0
GLOBAL-18,2022-034B,2026-06-20T08:34:20.128224,15.46390120,.0003224,52.9807,241.4882,296.5076,63.5599,0,U,52196,999,23745,.34329E-3,.16854E-3,0
JILIN-1 GAOFEN 3D27,2022-048B,2026-06-20T09:27:24.399360,15.76014932,.000109,97.5710,285.6215,340.1368,19.9855,0,U,52444,999,22998,.71051E-3,.111153E-2,0
JILIN-1 GAOFEN 3D28,2022-048C,2026-06-20T07:46:02.959104,15.79189311,.0000899,97.5650,285.7071,234.7776,125.3407,0,U,52445,999,23002,.73905E-3,.133413E-2,0
VIGORIDE-3,2022-057AE,2026-06-20T10:14:55.193280,15.27308098,.0009702,97.6612,311.4869,110.5914,249.6366,0,U,52760,999,22565,.17276E-3,.4548E-4,0
ION SCV-006,2022-057AF,2026-06-20T11:13:12.356832,15.45357696,.001833,97.6109,320.2466,102.6438,257.6861,0,U,52761,999,22662,.23393E-3,.1114E-3,0
SHERPA-AC1,2022-057AH,2026-06-20T09:19:48.551232,15.36302137,.0008892,97.6695,320.7483,83.9614,276.2642,0,U,52763,999,22619,.18138E-3,.6339E-4,0
OMNI-L2,2022-057AR,2026-06-20T10:22:31.730016,14.81377450,.0005521,97.4714,233.5727,324.4275,35.6570,0,U,52771,999,22087,.13144E-3,.98E-5,0
SNUGLITE-II,2022-065F,2026-06-20T09:06:05.346720,14.64352373,.0007803,98.2207,316.2040,23.7444,336.4117,0,U,52899,999,21146,.13817E-3,.681E-5,0
MIMAN,2022-065G,2026-06-20T08:00:37.194912,14.61846294,.0008018,98.2265,313.8001,25.7705,334.3894,0,U,52900,999,21090,.84546E-4,.375E-5,0
STARLINK-4362,2022-077A,2026-06-20T10:56:05.739072,15.05666928,.0001492,97.3364,350.2444,85.7977,274.3421,0,U,53043,999,21637,-.53732E-4,-.833E-5,0
LARES-2,2022-080A,2026-06-16T13:01:59.257344,6.38965086,.00053801,70.1619,305.5499,334.9817,25.0421,0,U,53105,999,9162,0,-.16E-6,0
GREENCUBE (IO-117),2022-080E,2026-06-20T07:07:43.074912,6.42583222,.0008923,70.1444,297.1634,288.8810,71.0882,0,U,53109,999,9226,0,-.3E-7,0
STARLINK-4410,2022-084R,2026-06-20T10:00:01.998720,15.32731418,.0001493,97.6003,232.5848,52.9333,319.2659,0,U,53204,999,575,.17634E-2,.5601E-3,0
COSMOS 2558,2022-089A,2026-06-20T09:15:29.699424,15.75746772,.0001456,97.2251,275.5817,235.4551,124.6578,0,U,53323,999,21833,.63943E-3,.9871E-3,0
STARLINK-4400,2022-099D,2026-06-20T07:14:49.195392,15.05638539,.0001446,97.3361,290.1780,133.5603,226.5744,0,U,53468,999,21141,.16754E-3,.236E-4,0
STARLINK-4621,2022-105AE,2026-06-20T04:07:23.679840,15.05658070,.00021171,97.3397,50.0674,81.3509,278.7958,0,U,53676,999,20865,-.82899233E-4,-.1253E-4,0
SHERPA-LTC2,2022-107BG,2026-06-20T09:10:38.286912,14.69739518,.0393554,53.2348,206.8038,235.0113,121.3325,0,U,53754,999,20301,.1926E-3,.3612E-4,0
CENTISPACE-1 S3,2022-108A,2026-06-20T10:08:19.080384,14.61256163,.0009566,53.5340,41.8810,3.9650,356.1399,0,U,53757,999,20200,.10133E-3,.314E-5,0
